[{"OBJECT_NAME":"ARVAKER-1","OBJECT_ID":"2025-052AU","EPOCH":"2026-03-09T15:31:39.211104","MEAN_MOTION":14.94134969,"ECCENTRICITY":0.0002607,"INCLINATION":97.6986,"RA_OF_ASC_NODE":321.8556,"ARG_OF_PERICENTER":153.6434,"MEAN_ANOMALY":206.4919,"EPHEMERIS_TYPE":0,"CLASSIFICATION_TYPE":"U","NORAD_CAT_ID":63252,"ELEMENT_SET_NO":999,"REV_AT_EPOCH":5374,"BSTAR":0.00034613,"MEAN_MOTION_DOT":3.647e-5,"MEAN_MOTION_DDOT":0},{"OBJECT_NAME":"LEMUR-2-SEJONG-2","OBJECT_ID":"2025-135BL","EPOCH":"2026-03-09T22:16:44.567904","MEAN_MOTION":14.95708739,"ECCENTRICITY":0.00031113,"INCLINATION":97.7555,"RA_OF_ASC_NODE":184.7737,"ARG_OF_PERICENTER":303.2241,"MEAN_ANOMALY":56.8681,"EPHEMERIS_TYPE":0,"CLASSIFICATION_TYPE":"U","NORAD_CAT_ID":64586,"ELEMENT_SET_NO":999,"REV_AT_EPOCH":3910,"BSTAR":0.00071638591,"MEAN_MOTION_DOT":7.923e-5,"MEAN_MOTION_DDOT":0}]
